NORAD_CAT_ID,OBJECT_NAME,OBJECT_TYPE,EPOCH,MEAN_MOTION,ECCENTRICITY,INCLINATION,RA_OF_ASC_NODE,ARG_OF_PERICENTER,MEAN_ANOMALY,BSTAR,MEAN_MOTION_DOT,MEAN_MOTION_DDOT,TLE_LINE0,TLE_LINE1,TLE_LINE2,SEMIMAJOR_AXIS,PERIOD,APOGEE,PERIGEE,DECAYED
52544.0,STARLINK-3944,PAYLOAD,2024-03-01 15:57:00,15.08863119,0.0001313,53.2154,207.2558,71.6549,288.4586,0.00051265,7.885e-05,0.0,0 STARLINK-3944,1 52544U 22051M   24061.66458522  .00007885  00000-0  51265-3 0  9991,2 52544  53.2154 207.2558 0001313  71.6549 288.4586 15.08863119 99956,6917.81,95.436,540.583,538.766,0.0
52544.0,STARLINK-3944,PAYLOAD,2024-03-02 14:12:24,15.08846953,0.0001213,53.2155,203.0945,94.7762,265.3369,7.8477e-05,9.62e-06,0.0,0 STARLINK-3944,1 52544U 22051M   24062.59194725  .00000962  00000-0  78477-4 0  9990,2 52544  53.2155 203.0945 0001213  94.7762 265.3369 15.08846953100091,6917.859,95.437,540.563,538.885,0.0
52544.0,STARLINK-3944,PAYLOAD,2024-03-02 15:47:47,15.08845246,0.0001204,53.2155,202.795,81.3146,278.7982,2.4206e-05,9.7e-07,0.0,0 STARLINK-3944,1 52544U 22051M   24062.65818786  .00000097  00000-0  24206-4 0  9997,2 52544  53.2155 202.7950 0001204  81.3146 278.7982 15.08845246100173,6917.864,95.437,540.562,538.896,0.0
52544.0,STARLINK-3944,PAYLOAD,2024-03-03 12:27:49,15.08829683,0.0001323,53.2175,198.9323,90.0317,270.0827,-1.4684e-05,-5.21e-06,0.0,0 STARLINK-3944,1 52544U 22051M   24063.51932157 -.00000521  00000-0 -14684-4 0  9995,2 52544  53.2175 198.9323 0001323  90.0317 270.0827 15.08829683100309,6917.912,95.438,540.692,538.862,0.0
52544.0,STARLINK-3944,PAYLOAD,2024-03-03 14:03:12,15.08829537,0.0001325,53.2174,198.635,83.6556,276.4587,-1.9229e-05,-5.94e-06,0.0,0 STARLINK-3944,1 52544U 22051M   24063.58556187 -.00000594  00000-0 -19229-4 0  9997,2 52544  53.2174 198.6350 0001325  83.6556 276.4587 15.08829537100244,6917.912,95.438,540.694,538.861,0.0
52544.0,STARLINK-3944,PAYLOAD,2024-03-03 15:38:35,15.0884035,0.0001306,53.2164,198.3371,82.9166,277.1975,-0.00015339,-2.728e-05,0.0,0 STARLINK-3944,1 52544U 22051M   24063.65179963 -.00002728  00000-0 -15339-3 0  9996,2 52544  53.2164 198.3371 0001306  82.9166 277.1975 15.08840350100257,6917.879,95.438,540.648,538.841,0.0
52544.0,STARLINK-3944,PAYLOAD,2024-03-04 13:53:57,15.08848091,0.0001393,53.2183,194.1757,89.4027,270.7124,0.00018935,2.728e-05,0.0,0 STARLINK-3944,1 52544U 22051M   24064.57914009  .00002728  00000-0  18935-3 0  9999,2 52544  53.2183 194.1757 0001393  89.4027 270.7124 15.08848091100462,6917.856,95.437,540.684,538.757,0.0
52544.0,STARLINK-3944,PAYLOAD,2024-03-04 15:29:19,15.08859899,0.0001379,53.2181,193.878,101.6744,258.4402,0.00028684,4.283e-05,0.0,0 STARLINK-3944,1 52544U 22051M   24064.64536957  .00004283  00000-0  28684-3 0  9999,2 52544  53.2181 193.8780 0001379 101.6744 258.4402 15.08859899100470,6917.82,95.436,540.639,538.731,0.0
52544.0,STARLINK-3944,PAYLOAD,2024-03-05 01:01:40,15.08836675,0.0001441,53.2173,192.0909,94.5373,265.5784,9.4053e-05,1.209e-05,0.0,0 STARLINK-3944,1 52544U 22051M   24065.04282858  .00001209  00000-0  94053-4 0  9991,2 52544  53.2173 192.0909 0001441  94.5373 265.5784 15.08836675100539,6917.891,95.438,540.752,538.759,0.0
52544.0,STARLINK-3944,PAYLOAD,2024-03-05 13:44:47,15.08822248,0.0001328,53.2171,189.712,104.4983,255.6156,-2.2797e-05,-6.5e-06,0.0,0 STARLINK-3944,1 52544U 22051M   24065.57276716 -.00000650  00000-0 -22797-4 0  9992,2 52544  53.2171 189.7120 0001328 104.4983 255.6156 15.08822248100542,6917.935,95.439,540.718,538.881,0.0
52544.0,STARLINK-3944,PAYLOAD,2024-03-05 18:30:56,15.0882899,0.000104,53.2162,188.8181,92.5676,267.5435,2.9507e-05,1.82e-06,0.0,0 STARLINK-3944,1 52544U 22051M   24065.77148292  .00000182  00000-0  29507-4 0  9995,2 52544  53.2162 188.8181 0001040  92.5676 267.5435 15.08828990100649,6917.914,95.438,540.499,539.06,0.0
52544.0,STARLINK-3944,PAYLOAD,2024-03-06 12:00:09,15.08851598,0.0001121,53.217,185.5481,98.4566,261.6554,-0.00010089,-1.894e-05,0.0,0 STARLINK-3944,1 52544U 22051M   24066.50011219 -.00001894  00000-0 -10089-3 0  9992,2 52544  53.2170 185.5481 0001121  98.4566 261.6554 15.08851598100757,6917.845,95.437,540.485,538.934,0.0
52544.0,STARLINK-3944,PAYLOAD,2024-03-06 13:35:32,15.08847274,0.0001081,53.2155,185.2502,95.7528,264.3587,-8.9907e-05,-1.719e-05,0.0,0 STARLINK-3944,1 52544U 22051M   24066.56634882 -.00001719  00000-0 -89907-4 0  9997,2 52544  53.2155 185.2502 0001081  95.7528 264.3587 15.08847274100699,6917.858,95.437,540.471,538.975,0.0
52544.0,STARLINK-3944,PAYLOAD,2024-03-07 13:26:21,15.08829409,0.0001879,53.217,180.7917,51.4225,308.6935,0.00012939,1.771e-05,0.0,0 STARLINK-3944,1 52544U 22051M   24067.55996588  .00001771  00000-0  12939-3 0  9997,2 52544  53.2170 180.7917 0001879  51.4225 308.6935 15.08829409100840,6917.913,95.438,541.078,538.478,0.0
52544.0,STARLINK-3944,PAYLOAD,2024-03-08 13:17:07,15.08849075,0.0001248,53.2159,176.332,86.192,273.9214,0.00017188,2.449e-05,0.0,0 STARLINK-3944,1 52544U 22051M   24068.55355631  .00002449  00000-0  17188-3 0  9990,2 52544  53.2159 176.3320 0001248  86.1920 273.9214 15.08849075101063,6917.853,95.437,540.581,538.854,0.0
52544.0,STARLINK-3944,PAYLOAD,2024-03-09 13:07:54,15.08843189,0.0001163,53.2153,171.8704,82.1288,277.9836,6.8935e-05,8.1e-06,0.0,0 STARLINK-3944,1 52544U 22051M   24069.54715851  .00000810  00000-0  68935-4 0  9991,2 52544  53.2153 171.8704 0001163  82.1288 277.9836 15.08843189101213,6917.871,95.437,540.54,538.931,0.0
52544.0,STARLINK-3944,PAYLOAD,2024-03-09 21:04:50,15.08826877,0.0001446,53.2152,170.3839,78.365,281.7504,-0.00018093,-3.165e-05,0.0,0 STARLINK-3944,1 52544U 22051M   24069.87836592 -.00003165  00000-0 -18093-3 0  9990,2 52544  53.2152 170.3839 0001446  78.3650 281.7504 15.08826877101264,6917.921,95.438,540.786,538.785,0.0
52544.0,STARLINK-3944,PAYLOAD,2024-03-10 12:58:41,15.08843198,0.0001408,53.2139,167.4087,92.5798,267.5355,8.2893e-05,1.032e-05,0.0,0 STARLINK-3944,1 52544U 22051M   24070.54075940  .00001032  00000-0  82893-4 0  9997,2 52544  53.2139 167.4087 0001408  92.5798 267.5355 15.08843198101362,6917.871,95.437,540.71,538.762,0.0
52544.0,STARLINK-3944,PAYLOAD,2024-03-10 20:55:37,15.08831033,0.0001533,53.2145,165.9197,125.7526,234.3609,-0.0001058,-1.971e-05,0.0,0 STARLINK-3944,1 52544U 22051M   24070.87196043 -.00001971  00000-0 -10580-3 0  9998,2 52544  53.2145 165.9197 0001533 125.7526 234.3609 15.08831033101348,6917.908,95.438,540.833,538.712,0.0
52544.0,STARLINK-3944,PAYLOAD,2024-03-11 12:49:28,15.08856156,0.0001319,53.2158,162.9493,81.2201,278.894,0.0011556,0.00018159,0.0,0 STARLINK-3944,1 52544U 22051M   24071.53436203  .00018159  00000-0  11556-2 0  9994,2 52544  53.2158 162.9493 0001319  81.2201 278.8940 15.08856156101519,6917.831,95.437,540.608,538.784,0.0
52544.0,STARLINK-3944,PAYLOAD,2024-03-11 14:24:52,15.08855973,0.0001415,53.2159,162.6525,78.3442,281.7709,0.0015834,0.00025013,0.0,0 STARLINK-3944,1 52544U 22051M   24071.60060220  .00025013  00000-0  15834-2 0  9994,2 52544  53.2159 162.6525 0001415  78.3442 281.7709 15.08855973101459,6917.832,95.437,540.675,538.718,0.0
52544.0,STARLINK-3944,PAYLOAD,2024-03-11 20:46:24,15.08840656,0.0001677,53.2163,161.4629,65.2705,294.8461,0.00055145,8.499e-05,0.0,0 STARLINK-3944,1 52544U 22051M   24071.86556532  .00008499  00000-0  55145-3 0  9997,2 52544  53.2163 161.4629 0001677  65.2705 294.8461 15.08840656101567,6917.878,95.438,540.904,538.583,0.0
52544.0,STARLINK-3944,PAYLOAD,2024-03-12 22:12:34,15.08839859,0.0001404,53.215,156.7051,91.4051,268.7102,0.0002578,3.817e-05,0.0,0 STARLINK-3944,1 52544U 22051M   24072.92540216  .00003817  00000-0  25780-3 0  9998,2 52544  53.2150 156.7051 0001404  91.4051 268.7102 15.08839859101657,6917.881,95.438,540.717,538.775,0.0
52544.0,STARLINK-3944,PAYLOAD,2024-03-13 06:09:30,15.08848299,0.0001332,53.2152,155.2183,97.6207,262.4936,0.00050871,7.819e-05,0.0,0 STARLINK-3944,1 52544U 22051M   24073.25660049  .00007819  00000-0  50871-3 0  9997,2 52544  53.2152 155.2183 0001332  97.6207 262.4936 15.08848299101777,6917.855,95.437,540.641,538.799,0.0
52544.0,STARLINK-3944,PAYLOAD,2024-03-13 14:06:25,15.08857436,0.0001348,53.2148,153.7318,90.3965,269.7182,0.0016107,0.00025452,0.0,0 STARLINK-3944,1 52544U 22051M   24073.58779950  .00025452  00000-0  16107-2 0  9991,2 52544  53.2148 153.7318 0001348  90.3965 269.7182 15.08857436101757,6917.827,95.436,540.625,538.76,0.0
52544.0,STARLINK-3944,PAYLOAD,2024-03-13 18:52:35,15.08866169,0.000131,53.2138,152.8389,90.187,269.9272,0.0016041,0.00025352,0.0,0 STARLINK-3944,1 52544U 22051M   24073.78651649  .00025352  00000-0  16041-2 0  9993,2 52544  53.2138 152.8389 0001310  90.1870 269.9272 15.08866169101784,6917.8,95.436,540.572,538.759,0.0
52544.0,STARLINK-3944,PAYLOAD,2024-03-14 04:24:54,15.08843745,0.0001271,53.2155,151.0568,82.2881,277.8255,0.00064261,9.955e-05,0.0,0 STARLINK-3944,1 52544U 22051M   24074.18396015  .00009955  00000-0  64261-3 0  9990,2 52544  53.2155 151.0568 0001271  82.2881 277.8255 15.08843745101912,6917.869,95.437,540.613,538.855,0.0
52544.0,STARLINK-3944,PAYLOAD,2024-03-14 06:00:17,15.08844825,0.0001282,53.2144,150.7576,90.1415,269.9724,0.00075219,0.00011705,0.0,0 STARLINK-3944,1 52544U 22051M   24074.25019970  .00011705  00000-0  75219-3 0  9991,2 52544  53.2144 150.7576 0001282  90.1415 269.9724 15.08844825101854,6917.866,95.437,540.618,538.844,0.0
52544.0,STARLINK-3944,PAYLOAD,2024-03-14 18:43:22,15.08830943,0.0001464,53.2136,148.3783,83.7719,276.344,0.00017888,2.559e-05,0.0,0 STARLINK-3944,1 52544U 22051M   24074.78012126  .00002559  00000-0  17888-3 0  9990,2 52544  53.2136 148.3783 0001464  83.7719 276.3440 15.08830943102006,6917.908,95.438,540.786,538.76,0.0
52544.0,STARLINK-3944,PAYLOAD,2024-03-15 12:12:36,15.0886987,0.0001875,53.2143,145.1084,60.5411,299.5768,0.0025816,0.00041072,0.0,0 STARLINK-3944,1 52544U 22051M   24075.50875965  .00041072  00000-0  25816-2 0  9991,2 52544  53.2143 145.1084 0001875  60.5411 299.5768 15.08869870102114,6917.789,95.436,540.951,538.357,0.0
